[{"OBJECT_NAME":"STARLINK-4454","OBJECT_ID":"2022-099AL","EPOCH":"2026-03-09T21:07:03.605376","MEAN_MOTION":15.05646203,"ECCENTRICITY":7.42e-5,"INCLINATION":97.604,"RA_OF_ASC_NODE":191.4609,"ARG_OF_PERICENTER":230.7408,"MEAN_ANOMALY":129.3753,"EPHEMERIS_TYPE":0,"CLASSIFICATION_TYPE":"U","NORAD_CAT_ID":53499,"ELEMENT_SET_NO":999,"REV_AT_EPOCH":19608,"BSTAR":3.8063679e-5,"MEAN_MOTION_DOT":4.88e-6,"MEAN_MOTION_DDOT":0},{"OBJECT_NAME":"CZ-4 DEB","OBJECT_ID":"2006-046J","EPOCH":"2026-03-09T18:53:15.937728","MEAN_MOTION":15.02015872,"ECCENTRICITY":0.00905092,"INCLINATION":97.813,"RA_OF_ASC_NODE":3.4349,"ARG_OF_PERICENTER":91.2796,"MEAN_ANOMALY":323.9331,"EPHEMERIS_TYPE":0,"CLASSIFICATION_TYPE":"U","NORAD_CAT_ID":35376,"ELEMENT_SET_NO":999,"REV_AT_EPOCH":2538,"BSTAR":0.001704414,"MEAN_MOTION_DOT":0.00024412,"MEAN_MOTION_DDOT":0}]
